DMSP 5D-3 F16 (USA 172) 
1 28054U 03048A   26195.89266324 -.00000054  00000+0 -44889-5 0  9995
2 28054  98.9897 219.9033 0008098  71.9072 345.9728 14.14484824173402
METEOSAT-9 (MSG-2)      
1 28912U 05049B   26195.96104628  .00000110  00000+0  00000+0 0  9999
2 28912   9.4224  53.8894 0002163 356.2462 274.3154  1.00271858  7276
DMSP 5D-3 F17 (USA 191) 
1 29522U 06050A   26195.95919525 -.00000027  00000+0  84551-5 0  9996
2 29522  98.7387 201.9618 0009727 343.5643  16.5214 14.14996233 16350
FENGYUN 3A              
1 32958U 08026A   26195.81778755  .00000018  00000+0  29304-4 0  9994
2 32958  98.6887 136.1349 0009673  52.8286 307.3772 14.19576476939323
GOES 14                 
1 35491U 09033A   26195.79771084 -.00000367  00000+0  00000+0 0  9998
2 35491   1.7587  82.6967 0001899  40.3899 222.0628  1.00098247  6863
DMSP 5D-3 F18 (USA 210) 
1 35951U 09057A   26195.93232374  .00000156  00000+0  10404-3 0  9993
2 35951  98.9056 176.6436 0011209 166.2143 193.9338 14.14911502863518
EWS-G2 (GOES 15)        
1 36411U 10008A   26195.87512463  .00000013  00000+0  00000+0 0  9995
2 36411   1.3515  82.4632 0005214  53.7621 174.8648  1.00268500 59917
COMS 1                  
1 36744U 10032A   26195.45878229 -.00000258  00000+0  00000+0 0  9992
2 36744   4.8730  75.0265 0011267  14.7056 332.7369  0.99168113 51358
FENGYUN 3B              
1 37214U 10059A   26195.96642772 -.00000275  00000+0 -11880-3 0  9994
2 37214  98.9611 242.0962 0023167 107.1098  13.6570 14.14846255811353
SUOMI NPP               
1 37849U 11061A   26195.90054385  .00000001  00000+0  21521-4 0  9992
2 37849  98.7956 136.5881 0000735 215.9062 144.2065 14.19522539762377
METEOSAT-10 (MSG-3)     
1 38552U 12035B   26195.77294064 -.00000018  00000+0  00000+0 0  9994
2 38552   4.7350  60.8824 0001130  16.5114 133.5417  1.00270718 51135
METOP-B                 
1 38771U 12049A   26195.92361901  .00000045  00000+0  40219-4 0  9994
2 38771  98.6490 246.8674 0001079 257.1464 102.9593 14.21446316717205
INSAT-3D                
1 39216U 13038B   26195.94365300 -.00000350  00000+0  00000+0 0  9996
2 39216   1.9956  82.1879 0000514  83.0220 236.8018  1.00268573 47352
FENGYUN 3C              
1 39260U 13052A   26195.95978443  .00000028  00000+0  35370-4 0  9994
2 39260  98.4998 168.5621 0013679 306.7083  53.2835 14.15760751662491
METEOR-M 2              
1 40069U 14037A   26195.94958453 -.00000224  00000+0 -83226-4 0  9998
2 40069  98.5124 170.7071 0005178 327.8747  32.2115 14.21468691623267
HIMAWARI-8              
1 40267U 14060A   26195.80074420 -.00000284  00000+0  00000+0 0  9991
2 40267   0.0163 356.9544 0001078 172.5336 192.1053  1.00271554 43036
FENGYUN 2G              
1 40367U 14090A   26195.74547804 -.00000314  00000+0  00000+0 0  9993
2 40367   5.7061  72.4807 0004120 171.8392  55.9516  1.00281192 42277
METEOSAT-11 (MSG-4)     
1 40732U 15034A   26195.77476065  .00000051  00000+0  00000+0 0  9998
2 40732   3.2680  70.9353 0002189 354.0310 155.8272  1.00271728  7498
ELEKTRO-L 2             
1 41105U 15074A   26195.41356580 -.00000129  00000+0  00000+0 0  9994
2 41105   6.7595  70.1832 0001026 212.6794 143.7919  1.00272099 38775
SENTINEL-3A             
1 41335U 16011A   26195.91785759  .00000042  00000+0  35579-4 0  9997
2 41335  98.6238 262.9014 0001363  89.9821 270.1516 14.26739702542013
INSAT-3DR               
1 41752U 16054A   26195.92525329 -.00000086  00000+0  00000+0 0  9998
2 41752   0.0692  88.6710 0010588 181.3056  69.8905  1.00270687 36090
HIMAWARI-9              
1 41836U 16064A   26195.58689512  .00000000  00000+0  00000+0 0  9994
2 41836   0.0126 316.2514 0002288 222.2337 105.9965  1.00265737 35482
GOES 16                 
1 41866U 16071A   26195.68089253 -.00000099  00000+0  00000+0 0  9991
2 41866   0.4025  85.4749 0000527  98.1238 249.3671  1.00270922 35373
FENGYUN 4A              
1 41882U 16077A   26195.79745084 -.00000367  00000+0  00000+0 0  9996
2 41882   2.3898  79.9598 0008506 159.5927 103.9340  1.00268349 35202
CYGFM05                 
1 41884U 16078A   26195.93739557  .00015726  00000+0  20429-3 0  9998
2 41884  34.9570  76.6629 0006003  34.3166 325.7946 15.57847011533087
CYGFM04                 
1 41885U 16078B   26195.81852939  .00020900  00000+0  22188-3 0  9990
2 41885  34.9324  43.7020 0004229  79.7565 280.3638 15.63063348533320
CYGFM02                 
1 41886U 16078C   26195.89138125  .00025041  00000+0  23301-3 0  9992
2 41886  34.9406  36.9016 0004946  84.9150 275.2142 15.66343464533512
CYGFM01                 
1 41887U 16078D   26195.84958599  .00016056  00000+0  20298-3 0  9991
2 41887  34.9399  78.0725 0005995  26.3896 333.7134 15.58562392533021
CYGFM08                 
1 41888U 16078E   26195.88777418  .00019707  00000+0  22283-3 0  9997
2 41888  34.9432  56.6403 0006212  65.3050 294.8322 15.61444457533305
CYGFM07                 
1 41890U 16078G   26195.90903819  .00019711  00000+0  22203-3 0  9996
2 41890  34.9448  44.8153 0004631  81.7309 278.3942 15.61553449533338
CYGFM03                 
1 41891U 16078H   26195.94416102  .00019629  00000+0  22121-3 0  9992
2 41891  34.9403  46.5105 0004536  63.9780 296.1413 15.61541865533313
